{
  "type": "FeatureCollection",
  "features": [
    {
      "type": "Feature",
      "properties": {
        "norad_id": 66914,
        "name": "2025-284B",
        "group": "last-30-days",
        "lat": 13.005895944943656,
        "lon": 130.68051209672865,
        "alt_km": 513.839363779206,
        "timestamp": "2025-12-13T18:50:03.175309+00:00",
        "meta_object_name": "2025-284B",
        "meta_object_id": "2025-284B",
        "meta_epoch": "2025-12-13T07:42:33.426144",
        "meta_mean_motion": 15.18936276,
        "meta_eccentricity": 0.00083279,
        "meta_inclination": 80.4051,
        "meta_ra_of_asc_node": 129.0287,
        "meta_arg_of_pericenter": 245.2147,
        "meta_mean_anomaly": 114.8215,
        "meta_ephemeris_type": 0,
        "meta_classification_type": "U",
        "meta_norad_cat_id": 66914,
        "meta_element_set_no": 999,
        "meta_rev_at_epoch": 121,
        "meta_bstar": 0.00071189398,
        "meta_mean_motion_dot": 0.00014914,
        "meta_mean_motion_ddot": 0,
        "tle_line1": "1 66914U 25284B   25347.32122021  .00014914  00000+0  71189-3 0  9998",
        "tle_line2": "2 66914  80.4051 129.0287 0008327 245.2147 114.8215 15.18936276  1214"
      },
      "geometry": {
        "type": "Point",
        "coordinates": [
          130.68051209672865,
          13.005895944943656
        ]
      }
    },
    {
      "type": "Feature",
      "properties": {
        "norad_id": 66915,
        "name": "HULIANWANG DIGUI-105",
        "group": "last-30-days",
        "lat": 46.75633248529329,
        "lon": 176.21546686929037,
        "alt_km": 879.1780989134904,
        "timestamp": "2025-12-13T18:50:03.175319+00:00",
        "meta_object_name": "HULIANWANG DIGUI-105",
        "meta_object_id": "2025-285A",
        "meta_epoch": "2025-12-12T21:59:21.438240",
        "meta_mean_motion": 14.03715291,
        "meta_eccentricity": 0.0007944,
        "meta_inclination": 50.005,
        "meta_ra_of_asc_node": 116.5531,
        "meta_arg_of_pericenter": 283.5948,
        "meta_mean_anomaly": 76.4071,
        "meta_ephemeris_type": 0,
        "meta_classification_type": "U",
        "meta_norad_cat_id": 66915,
        "meta_element_set_no": 999,
        "meta_rev_at_epoch": 93,
        "meta_bstar": 0.00019715928,
        "meta_mean_motion_dot": 1.61e-06,
        "meta_mean_motion_ddot": 0,
        "tle_line1": "1 66915U 25285A   25346.91622035  .00000161  00000+0  19716-3 0  9991",
        "tle_line2": "2 66915  50.0050 116.5531 0007944 283.5948  76.4071 14.03715291   934"
      },
      "geometry": {
        "type": "Point",
        "coordinates": [
          176.21546686929037,
          46.75633248529329
        ]
      }
    },
    {
      "type": "Feature",
      "properties": {
        "norad_id": 66916,
        "name": "HULIANWANG DIGUI-106",
        "group": "last-30-days",
        "lat": 49.58404380814513,
        "lon": -166.70268529538424,
        "alt_km": 873.5687600136789,
        "timestamp": "2025-12-13T18:50:03.175329+00:00",
        "meta_object_name": "HULIANWANG DIGUI-106",
        "meta_object_id": "2025-285B",
        "meta_epoch": "2025-12-13T08:11:47.825664",
        "meta_mean_motion": 14.05208738,
        "meta_eccentricity": 0.00066861,
        "meta_inclination": 50.0084,
        "meta_ra_of_asc_node": 114.8057,
        "meta_arg_of_pericenter": 277.4168,
        "meta_mean_anomaly": 82.5977,
        "meta_ephemeris_type": 0,
        "meta_classification_type": "U",
        "meta_norad_cat_id": 66916,
        "meta_element_set_no": 999,
        "meta_rev_at_epoch": 99,
        "meta_bstar": 0.00018032653,
        "meta_mean_motion_dot": 1.41e-06,
        "meta_mean_motion_ddot": 0,
        "tle_line1": "1 66916U 25285B   25347.34152576  .00000141  00000+0  18033-3 0  9997",
        "tle_line2": "2 66916  50.0084 114.8057 0006686 277.4168  82.5977 14.05208738   998"
      },
      "geometry": {
        "type": "Point",
        "coordinates": [
          -166.70268529538424,
          49.58404380814513
        ]
      }
    },
    {
      "type": "Feature",
      "properties": {
        "norad_id": 66917,
        "name": "HULIANWANG DIGUI-107",
        "group": "last-30-days",
        "lat": 49.83146356282718,
        "lon": -162.964311120159,
        "alt_km": 872.6315976463502,
        "timestamp": "2025-12-13T18:50:03.175339+00:00",
        "meta_object_name": "HULIANWANG DIGUI-107",
        "meta_object_id": "2025-285C",
        "meta_epoch": "2025-12-13T08:11:16.578240",
        "meta_mean_motion": 14.05580636,
        "meta_eccentricity": 0.00075413,
        "meta_inclination": 50.0017,
        "meta_ra_of_asc_node": 114.7991,
        "meta_arg_of_pericenter": 287.043,
        "meta_mean_anomaly": 72.9649,
        "meta_ephemeris_type": 0,
        "meta_classification_type": "U",
        "meta_norad_cat_id": 66917,
        "meta_element_set_no": 999,
        "meta_rev_at_epoch": 99,
        "meta_bstar": 1.2937595e-05,
        "meta_mean_motion_dot": -1.31e-06,
        "meta_mean_motion_ddot": 0,
        "tle_line1": "1 66917U 25285C   25347.34116410 -.00000131  00000+0  12938-4 0  9994",
        "tle_line2": "2 66917  50.0017 114.7991 0007541 287.0430  72.9649 14.05580636   990"
      },
      "geometry": {
        "type": "Point",
        "coordinates": [
          -162.964311120159,
          49.83146356282718
        ]
      }
    },
    {
      "type": "Feature",
      "properties": {
        "norad_id": 66918,
        "name": "HULIANWANG DIGUI-108",
        "group": "last-30-days",
        "lat": 49.982767805555014,
        "lon": -157.8822493483022,
        "alt_km": 871.6741779389495,
        "timestamp": "2025-12-13T18:50:03.175349+00:00",
        "meta_object_name": "HULIANWANG DIGUI-108",
        "meta_object_id": "2025-285D",
        "meta_epoch": "2025-12-13T08:10:24.066912",
        "meta_mean_motion": 14.05705678,
        "meta_eccentricity": 0.00064788,
        "meta_inclination": 50.0037,
        "meta_ra_of_asc_node": 114.7985,
        "meta_arg_of_pericenter": 282.3057,
        "meta_mean_anomaly": 77.7123,
        "meta_ephemeris_type": 0,
        "meta_classification_type": "U",
        "meta_norad_cat_id": 66918,
        "meta_element_set_no": 999,
        "meta_rev_at_epoch": 99,
        "meta_bstar": 0.00018112956,
        "meta_mean_motion_dot": 1.45e-06,
        "meta_mean_motion_ddot": 0,
        "tle_line1": "1 66918U 25285D   25347.34055633  .00000145  00000+0  18113-3 0  9998",
        "tle_line2": "2 66918  50.0037 114.7985 0006478 282.3057  77.7123 14.05705678   992"
      },
      "geometry": {
        "type": "Point",
        "coordinates": [
          -157.8822493483022,
          49.982767805555014
        ]
      }
    },
    {
      "type": "Feature",
      "properties": {
        "norad_id": 66919,
        "name": "HULIANWANG DIGUI-109",
        "group": "last-30-days",
        "lat": 49.98836257828274,
        "lon": -157.24186658486823,
        "alt_km": 872.2309023752478,
        "timestamp": "2025-12-13T18:50:03.175359+00:00",
        "meta_object_name": "HULIANWANG DIGUI-109",
        "meta_object_id": "2025-285E",
        "meta_epoch": "2025-12-13T08:10:17.549760",
        "meta_mean_motion": 14.05716761,
        "meta_eccentricity": 0.00078476,
        "meta_inclination": 50.0063,
        "meta_ra_of_asc_node": 114.8017,
        "meta_arg_of_pericenter": 293.6212,
        "meta_mean_anomaly": 66.3869,
        "meta_ephemeris_type": 0,
        "meta_classification_type": "U",
        "meta_norad_cat_id": 66919,
        "meta_element_set_no": 999,
        "meta_rev_at_epoch": 99,
        "meta_bstar": 2.57074e-07,
        "meta_mean_motion_dot": -1.52e-06,
        "meta_mean_motion_ddot": 0,
        "tle_line1": "1 66919U 25285E   25347.34048090 -.00000152  00000+0  25707-6 0  9997",
        "tle_line2": "2 66919  50.0063 114.8017 0007847 293.6212  66.3869 14.05716761   994"
      },
      "geometry": {
        "type": "Point",
        "coordinates": [
          -157.24186658486823,
          49.98836257828274
        ]
      }
    },
    {
      "type": "Feature",
      "properties": {
        "norad_id": 66920,
        "name": "HULIANWANG DIGUI-110",
        "group": "last-30-days",
        "lat": 49.873438840593046,
        "lon": -151.77100732367197,
        "alt_km": 870.6463199524005,
        "timestamp": "2025-12-13T18:50:03.175370+00:00",
        "meta_object_name": "HULIANWANG DIGUI-110",
        "meta_object_id": "2025-285F",
        "meta_epoch": "2025-12-13T08:09:21.243744",
        "meta_mean_motion": 14.05851591,
        "meta_eccentricity": 0.00058407,
        "meta_inclination": 50.0096,
        "meta_ra_of_asc_node": 114.8022,
        "meta_arg_of_pericenter": 290.6406,
        "meta_mean_anomaly": 69.3873,
        "meta_ephemeris_type": 0,
        "meta_classification_type": "U",
        "meta_norad_cat_id": 66920,
        "meta_element_set_no": 999,
        "meta_rev_at_epoch": 99,
        "meta_bstar": 0.00018252503,
        "meta_mean_motion_dot": 1.48e-06,
        "meta_mean_motion_ddot": 0,
        "tle_line1": "1 66920U 25285F   25347.33982921  .00000148  00000+0  18253-3 0  9997",
        "tle_line2": "2 66920  50.0096 114.8022 0005840 290.6406  69.3873 14.05851591   990"
      },
      "geometry": {
        "type": "Point",
        "coordinates": [
          -151.77100732367197,
          49.873438840593046
        ]
      }
    }
  ]
}